1 28129U 03058A   18001.19794985  .00000029  00000-0  00000+0 0  9990
2 28129  52.9700 149.5217 0073961 266.3428  92.7738  2.00567872102841
1 28129U 03058A   18001.19794992  .00000029  00000-0  00000-0 0  9999
2 28129  52.9700 149.5217 0073962 266.3395  92.7771  2.00567865102833
1 28129U 03058A   18001.69651033  .00000025  00000-0  00000-0 0  9998
2 28129  52.9701 149.5008 0073972 266.3564  92.7580  2.00567921102843
1 28129U 03058A   18002.19507150  .00000023  00000-0  00000+0 0  9991
2 28129  52.9702 149.4799 0073980 266.3724  92.7403  2.00567977102864
1 28129U 03058A   18003.19219618  .00000021  00000-0  00000+0 0  9999
2 28129  52.9705 149.4381 0073996 266.3954  92.7158  2.00568108102882
1 28129U 03058A   18003.19219618  .00000021  00000-0  00000-0 0  9990
2 28129  52.9705 149.4381 0073996 266.3954  92.7158  2.00568108102871
1 28129U 03058A   18004.18932347  .00000023  00000-0  00000+0 0  9992
2 28129  52.9708 149.3963 0074020 266.4254  92.6866  2.00568190102902
1 28129U 03058A   18004.68788789  .00000025  00000-0  00000-0 0  9999
2 28129  52.9709 149.3754 0074035 266.4377  92.6753  2.00568243102907
1 28129U 03058A   18005.18645261  .00000028  00000-0  00000+0 0  9994
2 28129  52.9711 149.3545 0074045 266.4537  92.6608  2.00568306102928
1 28129U 03058A   18005.68501752  .00000031  00000-0  00000-0 0  9990
2 28129  52.9712 149.3336 0074051 266.4691  92.6470  2.00568371102924
1 28129U 03058A   18006.18358218  .00000033  00000-0  00000-0 0  9995
2 28129  52.9713 149.3127 0074070 266.4784  92.6393  2.00568466102937
1 28129U 03058A   18006.18358222  .00000033  00000-0  00000+0 0  9999
2 28129  52.9713 149.3127 0074064 266.4802  92.6376  2.00568423102946
1 28129U 03058A   18007.18071083  .00000036  00000-0  00000+0 0  9990
2 28129  52.9715 149.2709 0074089 266.5068  92.6138  2.00568581102968
1 28129U 03058A   18007.18071083  .00000036  00000-0  00000-0 0  9991
2 28129  52.9715 149.2709 0074091 266.5090  92.6116  2.00568543102959
1 28129U 03058A   18008.17783705  .00000036  00000-0  00000-0 0  9992
2 28129  52.9717 149.2291 0074116 266.5414  92.5809  2.00568729102971
1 28129U 03058A   18008.17783727  .00000036  00000-0  00000+0 0  9995
2 28129  52.9717 149.2291 0074108 266.5364  92.5860  2.00568706102989
1 28129U 03058A   18009.17496074  .00000031  00000-0  00000+0 0  9997
2 28129  52.9719 149.1873 0074134 266.5644  92.5581  2.00568835103003
1 28129U 03058A   18009.67352149  .00000027  00000-0  00000+0 0  9991
2 28129  52.9720 149.1664 0074148 266.5786  92.5433  2.00568900103015
1 28129U 03058A   18009.67352150  .00000027  00000-0  00000-0 0  9994
2 28129  52.9720 149.1664 0074142 266.5797  92.5422  2.00568853103005
1 28129U 03058A   18010.67064126  .00000017  00000-0  00000-0 0  9998
2 28129  52.9722 149.1246 0074159 266.6100  92.5099  2.00568985103028
1 28129U 03058A   18011.16920042  .00000012  00000-0  00000+0 0  9995
2 28129  52.9723 149.1037 0074168 266.6233  92.4953  2.00569041103048
1 28129U 03058A   18011.66775906  .00000007  00000-0  00000-0 0  9992
2 28129  52.9725 149.0828 0074181 266.6327  92.4841  2.00569089103044
1 28129U 03058A   18012.16631749  .00000001  00000-0  00000+0 0  9997
2 28129  52.9726 149.0619 0074191 266.6410  92.4742  2.00569192103064
1 28129U 03058A   18012.66487572 -.00000003  00000-0  00000-0 0  9999
2 28129  52.9727 149.0410 0074201 266.6565  92.4570  2.00569212103069
1 28129U 03058A   18013.16343408 -.00000007  00000-0  00000+0 0  9997
2 28129  52.9728 149.0201 0074207 266.6708  92.4411  2.00569285103089
1 28129U 03058A   18013.66199252 -.00000010  00000-0  00000-0 0  9993
2 28129  52.9729 148.9992 0074222 266.6825  92.4279  2.00569328103082
1 28129U 03058A   18014.16055100 -.00000012  00000-0  00000+0 0  9993
2 28129  52.9730 148.9783 0074236 266.6958  92.4133  2.00569391103106
1 28129U 03058A   18014.16055105 -.00000012  00000-0  00000+0 0  9998
2 28129  52.9730 148.9784 0074246 266.6915  92.4176  2.00569423103104
1 28129U 03058A   18014.16055105 -.00000012  00000-0  00000-0 0  9999
2 28129  52.9730 148.9784 0074246 266.6915  92.4176  2.00569423103092
1 28129U 03058A   18015.65622847 -.00000012  00000-0  00000-0 0  9997
2 28129  52.9733 148.9157 0074275 266.7368  92.3705  2.00569561103128
1 28129U 03058A   18016.65334861 -.00000006  00000-0  00000+0 0  9996
2 28129  52.9735 148.8739 0074310 266.7642  92.3436  2.00569653103156
1 28129U 03058A   18017.15190947 -.00000003  00000-0  00000-0 0  9995
2 28129  52.9736 148.8531 0074332 266.7781  92.3305  2.00569742103159
1 28129U 03058A   18017.15190958 -.00000003  00000-0  00000+0 0  9996
2 28129  52.9736 148.8531 0074327 266.7762  92.3325  2.00569734103166
1 28129U 03058A   18018.64759393  .00000011  00000-0  00000+0 0  9993
2 28129  52.9739 148.7904 0074370 266.8250  92.2885  2.00569891103190
1 28129U 03058A   18019.14615594  .00000016  00000-0  00000-0 0  9999
2 28129  52.9740 148.7695 0074382 266.8388  92.2770  2.00569934103195
1 28129U 03058A   18020.14328036  .00000025  00000-0  00000+0 0  9992
2 28129  52.9742 148.7277 0074396 266.8677  92.2530  2.00569989103227
1 28129U 03058A   18020.64184242  .00000029  00000-0  00000-0 0  9991
2 28129  52.9743 148.7068 0074409 266.8822  92.2409  2.00570027103223
1 28129U 03058A   18021.14040409  .00000032  00000-0  00000+0 0  9996
2 28129  52.9744 148.6859 0074424 266.8973  92.2281  2.00570068103240
1 28129U 03058A   18022.13752615  .00000036  00000-0  00000-0 0  9990
2 28129  52.9746 148.6441 0074453 266.9260  92.2033  2.00570180103252
1 28129U 03058A   18022.63608603  .00000036  00000-0  00000-0 0  9992
2 28129  52.9747 148.6232 0074463 266.9426  92.1881  2.00570199103267
1 28129U 03058A   18023.13464518  .00000036  00000-0  00000+0 0  9992
2 28129  52.9748 148.6024 0074494 266.9595  92.1719  2.00570267103286
1 28129U 03058A   18023.63320353  .00000034  00000-0  00000-0 0  9994
2 28129  52.9749 148.5814 0074502 266.9763  92.1555  2.00570284103287
1 28129U 03058A   18024.13176091  .00000032  00000-0  00000+0 0  9995
2 28129  52.9749 148.5605 0074524 266.9937  92.1378  2.00570355103307
1 28129U 03058A   18024.63031734  .00000028  00000-0  00000+0 0  9999
2 28129  52.9750 148.5396 0074543 267.0116  92.1191  2.00570404103317
1 28129U 03058A   18026.12598261  .00000013  00000-0  00000+0 0  9992
2 28129  52.9753 148.4769 0074584 267.0614  92.0642  2.00570527103340
1 28129U 03058A   18027.12309020  .00000001  00000-0  00000+0 0  9993
2 28129  52.9755 148.4350 0074613 267.0963  92.0247  2.00570625103360
1 28129U 03058A   18028.12019822 -.00000010  00000-0  00000+0 0  9993
2 28129  52.9757 148.3932 0074641 267.1297  91.9872  2.00570716103384
1 28129U 03058A   18028.61875278 -.00000014  00000-0  00000-0 0  9997
2 28129  52.9759 148.3723 0074650 267.1435  91.9718  2.00570727103389
1 28129U 03058A   18029.11730749 -.00000017  00000-0  00000+0 0  9998
2 28129  52.9760 148.3514 0074669 267.1630  91.9510  2.00570788103406
1 28129U 03058A   18029.61586330 -.00000019  00000-0  00000-0 0  9991
2 28129  52.9761 148.3305 0074683 267.1804  91.9331  2.00570837103400
1 28129U 03058A   18030.11441953 -.00000021  00000-0  00000+0 0  9991
2 28129  52.9762 148.3096 0074695 267.1929  91.9207  2.00570923103429
1 28129U 03058A   18030.61297656 -.00000020  00000-0  00000-0 0  9995
2 28129  52.9763 148.2887 0074711 267.2084  91.9059  2.00570943103426
1 28129U 03058A   18031.11153414 -.00000019  00000-0  00000+0 0  9991
2 28129  52.9764 148.2678 0074731 267.2251  91.8904  2.00571041103443
1 28129U 03058A   18032.60721040 -.00000012  00000-0  00000+0 0  9995
2 28129  52.9767 148.2050 0074775 267.2748  91.8470  2.00571171103474
1 28129U 03058A   18032.60721040 -.00000012  00000-0  00000-0 0  9996
2 28129  52.9767 148.2050 0074775 267.2748  91.8470  2.00571171103463
1 28129U 03058A   18034.60144461 -.00000003  00000-0  00000-0 0  9994
2 28129  52.9771 148.1215 0074846 267.3415  91.7899  2.00571422103509
1 28129U 03058A   18034.60144467 -.00000003  00000-0  00000-0 0  9990
2 28129  52.9771 148.1215 0074855 267.3378  91.7934  2.00571408103501
1 28129U 03058A   18035.10000206 -.00000003  00000-0  00000+0 0  9997
2 28129  52.9772 148.1005 0074865 267.3537  91.7795  2.00571518103526
1 28129U 03058A   18035.59855878 -.00000004  00000-0  00000-0 0  9995
2 28129  52.9773 148.0796 0074875 267.3748  91.7598  2.00571550103525
1 28129U 03058A   18036.09711473 -.00000006  00000-0  00000-0 0  9995
2 28129  52.9774 148.0587 0074902 267.3907  91.7448  2.00571659103537
1 28129U 03058A   18036.09711476 -.00000006  00000-0  00000+0 0  9997
2 28129  52.9774 148.0587 0074898 267.3865  91.7491  2.00571648103541
1 28129U 03058A   18037.09422473 -.00000012  00000-0  00000+0 0  9991
2 28129  52.9775 148.0169 0074928 267.4165  91.7199  2.00571773103562
1 28129U 03058A   18038.09133224 -.00000022  00000-0  00000+0 0  9996
2 28129  52.9777 147.9751 0074948 267.4484  91.6873  2.00571850103581
1 28129U 03058A   18038.58988528 -.00000027  00000-0  00000-0 0  9991
2 28129  52.9778 147.9542 0074961 267.4613  91.6738  2.00571904103589
1 28129U 03058A   18039.08843797 -.00000032  00000-0  00000+0 0  9990
2 28129  52.9779 147.9333 0074977 267.4737  91.6606  2.00572004103601
1 28129U 03058A   18039.58699038 -.00000037  00000-0  00000-0 0  9998
2 28129  52.9780 147.9124 0074985 267.4909  91.6425  2.00572026103604
1 28129U 03058A   18040.08554253 -.00000041  00000-0  00000+0 0  9998
2 28129  52.9781 147.8915 0075005 267.5021  91.6304  2.00572130103626
1 28129U 03058A   18040.58409487 -.00000044  00000-0  00000-0 0  9995
2 28129  52.9782 147.8705 0075009 267.5204  91.6115  2.00572151103624
1 28129U 03058A   18040.58409490 -.00000044  00000-0  00000+0 0  9998
2 28129  52.9782 147.8705 0075017 267.5163  91.6154  2.00572184103637
1 28129U 03058A   18041.58120008 -.00000048  00000-0  00000+0 0  9998
2 28129  52.9784 147.8288 0075050 267.5452  91.5856  2.00572296103657
